H1 CPF 01  gfz 2022 08 15 12  7271 terrasarx 
H2 0702601  6201 31698    2022 08 15 12 59 42 2022 08 20 00 00 42   120 1 1  0 0 0
H9
10 0 59807  43182.000000  0    -316655.306   6582074.116  -2018866.273
10 0 59807  43302.000000  0    -143977.689   6794808.515  -1138943.854
10 0 59807  43422.000000  0      33869.300   6885845.184   -238996.900
10 0 59807  43542.000000  0     211634.474   6853474.763    665153.460
10 0 59807  43662.000000  0     384055.836   6698257.827   1557594.539
10 0 59807  43782.000000  0     545994.027   6423016.692   2422611.783
10 0 59807  43902.000000  0     692562.050   6032780.885   3244973.192
10 0 59807  44022.000000  0     819248.988   5534690.359   4010203.969
10 0 59807  44142.000000  0     922036.763   4937859.004   4704846.260
10 0 59807  44262.000000  0     997502.268   4253195.491   5316701.684
10 0 59807  44382.000000  0    1042905.700   3493191.792   5835040.360
10 0 59807  44502.000000  0    1056263.941   2671688.031   6250784.818
10 0 59807  44622.000000  0    1036404.706   1803613.620   6556663.846
10 0 59807  44742.000000  0     983002.370    904711.229   6747333.860
10 0 59807  44862.000000  0     896594.657     -8750.991   6819465.740
10 0 59807  44982.000000  0     778579.792   -920272.399   6771799.542
10 0 59807  45102.000000  0     631193.828  -1813417.787   6605166.420
10 0 59807  45222.000000  0     457468.434  -2672113.455   6322475.293
10 0 59807  45342.000000  0     261169.870  -3480938.124   5928665.198
10 0 59807  45462.000000  0      46720.661  -4225401.048   5430621.281
10 0 59807  45582.000000  0    -180894.256  -4892203.410   4837060.898
10 0 59807  45702.000000  0    -416235.938  -5469482.730   4158389.505
10 0 59807  45822.000000  0    -653533.870  -5947034.865   3406522.783
10 0 59807  45942.000000  0    -886819.116  -6316504.149   2594678.600
10 0 59807  46062.000000  0   -1110063.777  -6571538.971   1737143.536
10 0 59807  46182.000000  0   -1317324.382  -6707910.302    849018.675
10 0 59807  46302.000000  0   -1502887.497  -6723588.294    -54054.257
10 0 59807  46422.000000  0   -1661409.954  -6618772.614   -956177.600
10 0 59807  46542.000000  0   -1788051.740  -6395878.168  -1841486.347
10 0 59807  46662.000000  0   -1878598.651  -6059476.972  -2694434.784
10 0 59807  46782.000000  0   -1929571.823  -5616197.403  -3500075.744
10 0 59807  46902.000000  0   -1938320.932  -5074582.850  -4244325.868
10 0 59807  47022.000000  0   -1903098.689  -4444914.910  -4914210.391
10 0 59807  47142.000000  0   -1823115.671  -3739007.390  -5498083.702
10 0 59807  47262.000000  0   -1698574.747  -2969976.256  -5985823.667
10 0 59807  47382.000000  0   -1530684.331  -2151989.805  -6368997.561
10 0 59807  47502.000000  0   -1321650.381  -1300004.162  -6640996.333
10 0 59807  47622.000000  0   -1074648.433   -429490.706  -6797137.201
10 0 59807  47742.000000  0    -793776.099    443840.886  -6834735.264
10 0 59807  47862.000000  0    -483985.480   1304319.339  -6753144.039
10 0 59807  47982.000000  0    -150997.976   2136585.591  -6553765.113
10 0 59807  48102.000000  0     198797.354   2925860.042  -6240027.715
10 0 59807  48222.000000  0     558462.953   3658201.822  -5817337.660
10 0 59807  48342.000000  0     920646.335   4320753.924  -5292992.601
10 0 59807  48462.000000  0    1277725.222   4901970.738  -4676067.577
10 0 59807  48582.000000  0    1621963.423   5391826.070  -3977269.381
10 0 59807  48702.000000  0    1945674.070   5781994.930  -3208759.678
10 0 59807  48822.000000  0    2241386.453   6066005.639  -2383950.736
10 0 59807  48942.000000  0    2502013.474   6239359.344  -1517275.182
10 0 59807  49062.000000  0    2721015.257   6299612.192   -623932.541
10 0 59807  49182.000000  0    2892554.401   6246416.372    280382.071
10 0 59807  49302.000000  0    3011638.743   6081518.798   1179760.246
10 0 59807  49422.000000  0    3074248.124   5808718.532   2058367.729
10 0 59807  49542.000000  0    3077441.733   5433783.127   2900731.608
10 0 59807  49662.000000  0    3019443.618   4964325.359   3692020.713
10 0 59807  49782.000000  0    2899704.518   4409644.231   4418312.778
10 0 59807  49902.000000  0    2718936.351   3780533.588   5066844.825
10 0 59807  50022.000000  0    2479118.347   3089061.942   5626236.645
10 0 59807  50142.000000  0    2183479.502   2348334.174   6086685.503
10 0 59807  50262.000000  0    1836455.978   1572238.401   6440133.885
10 0 59807  50382.000000  0    1443622.628    775180.635   6680404.983
10 0 59807  50502.000000  0    1011601.401    -28184.274   6803303.158
10 0 59807  50622.000000  0     547949.140   -823220.578   6806683.174
10 0 59807  50742.000000  0      61025.153  -1595578.526   6690486.540
10 0 59807  50862.000000  0    -440159.691  -2331453.213   6456742.086
10 0 59807  50982.000000  0    -946109.461  -3017831.757   6109531.923
10 0 59807  51102.000000  0   -1447020.774  -3642723.829   5654922.732
10 0 59807  51222.000000  0   -1932970.344  -4195372.989   5100866.798
10 0 59807  51342.000000  0   -2394112.030  -4666447.453   4457071.236
10 0 59807  51462.000000  0   -2820878.625  -5048205.712   3734833.711
10 0 59807  51582.000000  0   -3204182.167  -5334631.796   2946845.916
10 0 59807  51702.000000  0   -3535607.496  -5521535.915   2106969.804
10 0 59807  51822.000000  0   -3807596.025  -5606620.018   1229991.373
10 0 59807  51942.000000  0   -4013615.532  -5589505.830    331354.984
10 0 59807  52062.000000  0   -4148311.033  -5471724.092   -573115.901
10 0 59807  52182.000000  0   -4207632.961  -5256665.401  -1467506.440
10 0 59807  52302.000000  0   -4188938.538  -4949492.507  -2336099.925
10 0 59807  52422.000000  0   -4091063.962  -4557016.849  -3163661.406
10 0 59807  52542.000000  0   -3914365.741  -4087543.662  -3935709.012
10 0 59807  52662.000000  0   -3660731.045  -3550690.753  -4638767.418
10 0 59807  52782.000000  0   -3333557.890  -2957185.755  -5260599.709
10 0 59807  52902.000000  0   -2937705.725  -2318646.352  -5790413.420
10 0 59807  53022.000000  0   -2479418.671  -1647349.650  -6219038.233
10 0 59807  53142.000000  0   -1966222.600   -955994.727  -6539074.484
10 0 59807  53262.000000  0   -1406798.062   -257463.125  -6745009.077
10 0 59807  53382.000000  0    -810833.465    435417.231  -6833298.964
10 0 59807  53502.000000  0    -188860.196   1110101.451  -6802425.496
10 0 59807  53622.000000  0     447929.077   1754548.955  -6652917.394
10 0 59807  53742.000000  0    1087875.828   2357432.763  -6387344.550
10 0 59807  53862.000000  0    1719065.357   2908335.831  -6010279.429
10 0 59807  53982.000000  0    2329544.133   3397930.297  -5528226.151
10 0 59807  54102.000000  0    2907543.223   3818136.100  -4949518.322
10 0 59807  54222.000000  0    3441703.810   4162258.281  -4284186.938
10 0 59807  54342.000000  0    3921301.910   4425100.084  -3543797.270
10 0 59807  54462.000000  0    4336467.245   4603048.235  -2741256.016
10 0 59807  54582.000000  0    4678390.338   4694127.480  -1890590.469
10 0 59807  54702.000000  0    4939513.443   4698023.711  -1006705.405
10 0 59807  54822.000000  0    5113700.737   4616073.490   -105118.713
10 0 59807  54942.000000  0    5196380.235   4451219.901    798316.649
10 0 59807  55062.000000  0    5184656.557   4207936.840   1687697.986
10 0 59807  55182.000000  0    5077392.209   3892122.086   2547361.437
10 0 59807  55302.000000  0    4875251.951   3510960.638   3362167.571
10 0 59807  55422.000000  0    4580709.028   3072763.131   4117775.171
10 0 59807  55542.000000  0    4198015.190   2586783.506   4800897.659
10 0 59807  55662.000000  0    3733136.517   2063021.652   5399538.076
10 0 59807  55782.000000  0    3193652.402   1512015.197   5903199.254
10 0 59807  55902.000000  0    2588625.168    944624.529   6303062.810
10 0 59807  56022.000000  0    1928442.462    371816.935   6592136.159
10 0 59807  56142.000000  0    1224635.928   -195544.128   6765368.759
10 0 59807  56262.000000  0     489677.590   -746904.376   6819737.052
10 0 59807  56382.000000  0    -263242.467  -1272215.175   6754293.368
10 0 59807  56502.000000  0   -1020452.731  -1762116.161   6570180.799
10 0 59807  56622.000000  0   -1768047.689  -2208102.066   6270613.061
10 0 59807  56742.000000  0   -2492140.703  -2602669.765   5860821.505
10 0 59807  56862.000000  0   -3179121.636  -2939446.254   5347972.197
10 0 59807  56982.000000  0   -3815917.505  -3213295.438   4741047.378
10 0 59807  57102.000000  0   -4390245.917  -3420398.881   4050691.803
10 0 59807  57222.000000  0   -4890857.011  -3558309.917   3289029.576
10 0 59807  57342.000000  0   -5307759.808  -3625980.287   2469453.676
10 0 59807  57462.000000  0   -5632428.918  -3623759.288   1606389.862
10 0 59807  57582.000000  0   -5857984.354  -3553363.588    715037.596
10 0 59807  57702.000000  0   -5979339.771  -3417817.852   -188904.572
10 0 59807  57822.000000  0   -5993315.948  -3221368.880  -1089523.938
10 0 59807  57942.000000  0   -5898715.566  -2969374.320  -1970984.037
10 0 59807  58062.000000  0   -5696355.977  -2668168.663  -2817811.306
10 0 59807  58182.000000  0   -5389062.203  -2324911.788  -3615171.553
10 0 59807  58302.000000  0   -4981620.060  -1947423.453  -4349131.787
10 0 59807  58422.000000  0   -4480691.841  -1544008.295  -5006901.760
10 0 59807  58542.000000  0   -3894696.838  -1123275.534  -5577052.101
10 0 59807  58662.000000  0   -3233659.542   -693957.182  -6049704.346
10 0 59807  58782.000000  0   -2509030.617   -264729.497  -6416690.958
10 0 59807  58902.000000  0   -1733484.152    155958.713  -6671684.930
10 0 59807  59022.000000  0    -920694.721    560047.451  -6810297.254
10 0 59807  59142.000000  0     -85099.954    940015.246  -6830143.904
10 0 59807  59262.000000  0     758349.622   1289015.356  -6730881.694
10 0 59807  59382.000000  0    1594450.886   1600995.275  -6514215.904
10 0 59807  59502.000000  0    2408017.073   1870800.702  -6183874.851
10 0 59807  59622.000000  0    3184149.118   2094260.143  -5745552.223
99
